NORAD_CAT_ID,OBJECT_NAME,OBJECT_TYPE,EPOCH,MEAN_MOTION,ECCENTRICITY,INCLINATION,RA_OF_ASC_NODE,ARG_OF_PERICENTER,MEAN_ANOMALY,BSTAR,MEAN_MOTION_DOT,MEAN_MOTION_DDOT,TLE_LINE0,TLE_LINE1,TLE_LINE2,SEMIMAJOR_AXIS,PERIOD,APOGEE,PERIGEE,DECAYED
55778.0,STARLINK-5816,PAYLOAD,2024-01-13 12:05:38,14.98334085,0.0002553,70.0001,46.568,263.0483,97.0385,9.4482e-05,1.035e-05,0.0,0 STARLINK-5816,1 55778U 23028AP  24013.50392205  .00001035  00000-0  94482-4 0  9993,2 55778  70.0001  46.5680 0002553 263.0483  97.0385 14.98334085 48775,6950.18,96.107,573.82,570.271,0.0
55778.0,STARLINK-5816,PAYLOAD,2024-01-14 04:06:59,14.98340415,0.0002423,70.0004,44.8831,271.1273,88.9608,-6.0181e-05,-8.11e-06,0.0,0 STARLINK-5816,1 55778U 23028AP  24014.17151936 -.00000811  00000-0 -60181-4 0  9993,2 55778  70.0004  44.8831 0002423 271.1273  88.9608 14.98340415 48872,6950.161,96.106,573.71,570.342,0.0
55778.0,STARLINK-5816,PAYLOAD,2024-01-14 12:07:39,14.98338616,0.0002463,70.0003,44.0416,270.9467,89.1409,-7.5959e-05,-9.99e-06,0.0,0 STARLINK-5816,1 55778U 23028AP  24014.50531882 -.00000999  00000-0 -75959-4 0  9998,2 55778  70.0003  44.0416 0002463 270.9467  89.1409 14.98338616 48926,6950.166,96.106,573.743,570.319,0.0
55778.0,STARLINK-5816,PAYLOAD,2024-01-15 04:08:59,14.98335941,0.0002564,70.0001,42.358,271.7331,88.3534,-9.5977e-07,-1.04e-06,0.0,0 STARLINK-5816,1 55778U 23028AP  24015.17291498 -.00000104  00000-0 -95977-6 0  9990,2 55778  70.0001  42.3580 0002564 271.7331  88.3534 14.98335941 49028,6950.175,96.107,573.822,570.257,0.0
55778.0,STARLINK-5816,PAYLOAD,2024-01-15 12:09:39,14.98337783,0.0002549,70.0001,41.5165,271.802,88.2847,2.045e-05,1.51e-06,0.0,0 STARLINK-5816,1 55778U 23028AP  24015.50671185  .00000151  00000-0  20450-4 0  9994,2 55778  70.0001  41.5165 0002549 271.8020  88.2847 14.98337783 49074,6950.169,96.106,573.805,570.262,0.0
55778.0,STARLINK-5816,PAYLOAD,2024-01-16 00:58:45,14.98290217,0.0002196,70.0006,40.1699,260.0075,100.0836,0.0005504,6.473e-05,0.0,0 STARLINK-5816,1 55778U 23028AP  24016.04080047  .00006473  00000-0  55040-3 0  9990,2 55778  70.0006  40.1699 0002196 260.0075 100.0836 14.98290217 49154,6950.316,96.11,573.707,570.655,0.0
55778.0,STARLINK-5816,PAYLOAD,2024-01-16 10:35:33,14.98323126,0.0002378,70.0005,39.1599,264.8467,95.2421,-6.7856e-05,-9.02e-06,0.0,0 STARLINK-5816,1 55778U 23028AP  24016.44136328 -.00000902  00000-0 -67856-4 0  9990,2 55778  70.0005  39.1599 0002378 264.8467  95.2421 14.98323126 49217,6950.214,96.107,573.732,570.426,0.0
55778.0,STARLINK-5816,PAYLOAD,2024-01-17 04:13:01,14.98330826,0.0002438,70.0005,37.3084,259.7995,100.2889,-9.1917e-06,-2.03e-06,0.0,0 STARLINK-5816,1 55778U 23028AP  24017.17571690 -.00000203  00000-0 -91917-5 0  9996,2 55778  70.0005  37.3084 0002438 259.7995 100.2889 14.98330826 49324,6950.19,96.107,573.75,570.361,0.0
55778.0,STARLINK-5816,PAYLOAD,2024-01-17 10:37:34,14.98330456,0.0002443,70.0004,36.635,258.9296,101.1588,-9.5556e-06,-2.07e-06,0.0,0 STARLINK-5816,1 55778U 23028AP  24017.44275720 -.00000207  00000-0 -95556-5 0  9998,2 55778  70.0004  36.6350 0002443 258.9296 101.1588 14.98330456 49361,6950.191,96.107,573.754,570.359,0.0
55778.0,STARLINK-5816,PAYLOAD,2024-01-18 04:15:02,14.98326112,0.0002587,70.0,34.783,258.2847,101.8021,8.1421e-05,8.79e-06,0.0,0 STARLINK-5816,1 55778U 23028AP  24018.17711753  .00000879  00000-0  81421-4 0  9998,2 55778  70.0000  34.7830 0002587 258.2847 101.8021 14.98326112 49478,6950.205,96.107,573.868,570.272,0.0
55778.0,STARLINK-5816,PAYLOAD,2024-01-18 10:39:35,14.98326648,0.0002606,70.0001,34.1095,261.0839,99.0025,7.732e-05,8.3e-06,0.0,0 STARLINK-5816,1 55778U 23028AP  24018.44415806  .00000830  00000-0  77320-4 0  9998,2 55778  70.0001  34.1095 0002606 261.0839  99.0025 14.98326648 49512,6950.203,96.107,573.879,570.257,0.0
55778.0,STARLINK-5816,PAYLOAD,2024-01-19 10:41:36,14.98331966,0.0002641,70.0002,31.5854,261.5689,98.5171,1.561e-05,9.3e-07,0.0,0 STARLINK-5816,1 55778U 23028AP  24019.44555637  .00000093  00000-0  15610-4 0  9991,2 55778  70.0002  31.5854 0002641 261.5689  98.5171 14.98331966 49665,6950.187,96.107,573.887,570.216,0.0
55778.0,STARLINK-5816,PAYLOAD,2024-01-19 23:30:40,14.98331373,0.0002669,70.0003,30.2389,262.4555,97.6301,1.1257e-05,4.1e-07,0.0,0 STARLINK-5816,1 55778U 23028AP  24019.97963622  .00000041  00000-0  11257-4 0  9992,2 55778  70.0003  30.2389 0002669 262.4555  97.6301 14.98331373 49743,6950.189,96.107,573.909,570.199,0.0
55778.0,STARLINK-5816,PAYLOAD,2024-01-20 10:43:36,14.98332153,0.0002636,70.0004,29.0596,263.3553,96.7306,2.5135e-05,2.07e-06,0.0,0 STARLINK-5816,1 55778U 23028AP  24020.44695519  .00000207  00000-0  25135-4 0  9997,2 55778  70.0004  29.0596 0002636 263.3553  96.7306 14.98332153 49812,6950.186,96.107,573.883,570.219,0.0
55778.0,STARLINK-5816,PAYLOAD,2024-01-21 05:57:13,14.98327902,0.0002553,70.0007,27.0393,263.9634,96.1234,1.4973e-06,-7.5e-07,0.0,0 STARLINK-5816,1 55778U 23028AP  24021.24807837 -.00000075  00000-0  14973-5 0  9997,2 55778  70.0007  27.0393 0002553 263.9634  96.1234 14.98327902 49935,6950.199,96.107,573.839,570.29,0.0
55778.0,STARLINK-5816,PAYLOAD,2024-01-21 10:45:38,14.98327829,0.0002564,70.0007,26.5343,263.8861,96.2006,-5.2125e-07,-9.9e-07,0.0,0 STARLINK-5816,1 55778U 23028AP  24021.44835877 -.00000099  00000-0 -52125-6 0  9993,2 55778  70.0007  26.5343 0002564 263.8861  96.2006 14.98327829 49966,6950.2,96.107,573.847,570.283,0.0
55778.0,STARLINK-5816,PAYLOAD,2024-01-22 05:59:14,14.98330656,0.0002787,70.0005,24.5143,269.0148,91.0691,4.8516e-05,4.86e-06,0.0,0 STARLINK-5816,1 55778U 23028AP  24022.24947490  .00000486  00000-0  48516-4 0  9992,2 55778  70.0005  24.5143 0002787 269.0148  91.0691 14.98330656 50083,6950.191,96.107,573.993,570.119,0.0
55778.0,STARLINK-5816,PAYLOAD,2024-01-22 10:47:37,14.98365585,0.0002748,70.0006,24.0091,263.8475,96.2371,-0.00051745,-6.267e-05,0.0,0 STARLINK-5816,1 55778U 23028AP  24022.44974384 -.00006267  00000-0 -51745-3 0  9998,2 55778  70.0006  24.0091 0002748 263.8475  96.2371 14.98365585 50118,6950.083,96.105,573.858,570.038,0.0
55778.0,STARLINK-5816,PAYLOAD,2024-01-23 02:48:59,14.98327132,0.0002609,70.0008,22.3263,261.1323,98.9541,2.7259e-05,2.32e-06,0.0,0 STARLINK-5816,1 55778U 23028AP  24023.11735634  .00000232  00000-0  27259-4 0  9994,2 55778  70.0008  22.3263 0002609 261.1323  98.9541 14.98327132 50216,6950.202,96.107,573.88,570.253,0.0
55778.0,STARLINK-5816,PAYLOAD,2024-01-23 06:01:15,14.98327378,0.0002594,70.0009,21.9898,260.6598,99.4268,3.1008e-05,2.77e-06,0.0,0 STARLINK-5816,1 55778U 23028AP  24023.25087641  .00000277  00000-0  31008-4 0  9993,2 55778  70.0009  21.9898 0002594 260.6598  99.4268 14.98327378 50233,6950.201,96.107,573.869,570.263,0.0
55778.0,STARLINK-5816,PAYLOAD,2024-01-23 09:13:31,14.98328712,0.0002568,70.001,21.6533,259.7569,100.3301,4.581e-05,4.54e-06,0.0,0 STARLINK-5816,1 55778U 23028AP  24023.38439523  .00000454  00000-0  45810-4 0  9990,2 55778  70.0010  21.6533 0002568 259.7569 100.3301 14.98328712 50251,6950.197,96.107,573.847,570.277,0.0
55778.0,STARLINK-5816,PAYLOAD,2024-01-24 02:51:00,14.98332637,0.0002543,70.0013,19.803,250.5883,109.5002,9.1113e-06,1.6e-07,0.0,0 STARLINK-5816,1 55778U 23028AP  24024.11875240  .00000016  00000-0  91113-5 0  9994,2 55778  70.0013  19.8030 0002543 250.5883 109.5002 14.98332637 50368,6950.185,96.107,573.817,570.282,0.0
55778.0,STARLINK-5816,PAYLOAD,2024-01-24 09:15:32,14.98332147,0.0002543,70.0014,19.1299,251.8587,108.2295,3.7382e-06,-4.8e-07,0.0,0 STARLINK-5816,1 55778U 23028AP  24024.38579278 -.00000048  00000-0  37382-5 0  9999,2 55778  70.0014  19.1299 0002543 251.8587 108.2295 14.98332147 50405,6950.186,96.107,573.819,570.284,0.0
55778.0,STARLINK-5816,PAYLOAD,2024-01-25 02:53:01,14.98329394,0.0002625,70.0013,17.2789,256.117,103.9697,-3.1227e-06,-1.3e-06,0.0,0 STARLINK-5816,1 55778U 23028AP  24025.12015381 -.00000130  00000-0 -31227-5 0  9997,2 55778  70.0013  17.2789 0002625 256.1170 103.9697 14.98329394 50514,6950.195,96.107,573.884,570.235,0.0
55778.0,STARLINK-5816,PAYLOAD,2024-01-25 09:17:33,14.98328911,0.0002646,70.0011,16.6049,259.4632,100.6229,-7.2424e-06,-1.79e-06,0.0,0 STARLINK-5816,1 55778U 23028AP  24025.38719455 -.00000179  00000-0 -72424-5 0  9995,2 55778  70.0011  16.6049 0002646 259.4632 100.6229 14.98328911 50559,6950.196,96.107,573.9,570.222,0.0
55778.0,STARLINK-5816,PAYLOAD,2024-01-26 02:55:02,14.98330787,0.0002704,70.001,14.753,258.6773,101.4082,-9.4145e-06,-2.05e-06,0.0,0 STARLINK-5816,1 55778U 23028AP  24026.12155306 -.00000205  00000-0 -94145-5 0  9991,2 55778  70.0010  14.7530 0002704 258.6773 101.4082 14.98330787 50666,6950.19,96.107,573.935,570.176,0.0
55778.0,STARLINK-5816,PAYLOAD,2024-01-26 09:19:34,14.98332024,0.0002675,70.0011,14.0797,259.2556,100.8302,9.2697e-06,1.8e-07,0.0,0 STARLINK-5816,1 55778U 23028AP  24026.38859179  .00000018  00000-0  92697-5 0  9998,2 55778  70.0011  14.0797 0002675 259.2556 100.8302 14.98332024 50707,6950.187,96.107,573.911,570.192,0.0
55778.0,STARLINK-5816,PAYLOAD,2024-01-27 02:57:03,14.98327519,0.0002597,70.0012,12.2276,259.7638,100.3229,2.0297e-05,1.49e-06,0.0,0 STARLINK-5816,1 55778U 23028AP  24027.12295425  .00000149  00000-0  20297-4 0  9990,2 55778  70.0012  12.2276 0002597 259.7638 100.3229 14.98327519 50817,6950.201,96.107,573.871,570.261,0.0
55778.0,STARLINK-5816,PAYLOAD,2024-01-27 09:21:35,14.98326068,0.0002644,70.0012,11.554,262.1534,97.9325,1.3738e-06,-7.7e-07,0.0,0 STARLINK-5816,1 55778U 23028AP  24027.38999652 -.00000077  00000-0  13738-5 0  9995,2 55778  70.0012  11.5540 0002644 262.1534  97.9325 14.98326068 50859,6950.205,96.107,573.908,570.232,0.0
55778.0,STARLINK-5816,PAYLOAD,2024-01-28 04:35:12,14.9833137,0.000277,70.0011,9.5344,262.3672,97.7173,6.2627e-06,-1.8e-07,0.0,0 STARLINK-5816,1 55778U 23028AP  24028.19111299 -.00000018  00000-0  62627-5 0  9994,2 55778  70.0011   9.5344 0002770 262.3672  97.7173 14.98331370 50976,6950.189,96.107,573.979,570.128,0.0
